[{"OBJECT_NAME":"FLOCK 4BE-22","OBJECT_ID":"2024-149AC","EPOCH":"2026-03-15T05:24:44.434656","MEAN_MOTION":15.38003786,"ECCENTRICITY":0.00030228,"INCLINATION":97.3774,"RA_OF_ASC_NODE":157.1019,"ARG_OF_PERICENTER":236.3603,"MEAN_ANOMALY":123.7354,"EPHEMERIS_TYPE":0,"CLASSIFICATION_TYPE":"U","NORAD_CAT_ID":60494,"ELEMENT_SET_NO":999,"REV_AT_EPOCH":8784,"BSTAR":0.00061197998,"MEAN_MOTION_DOT":0.00022839,"MEAN_MOTION_DDOT":0},{"OBJECT_NAME":"FLOCK 4BE-34","OBJECT_ID":"2024-149AD","EPOCH":"2026-03-15T04:21:41.452992","MEAN_MOTION":15.38192307,"ECCENTRICITY":0.00029058,"INCLINATION":97.3818,"RA_OF_ASC_NODE":157.8117,"ARG_OF_PERICENTER":233.0748,"MEAN_ANOMALY":127.0232,"EPHEMERIS_TYPE":0,"CLASSIFICATION_TYPE":"U","NORAD_CAT_ID":60495,"ELEMENT_SET_NO":999,"REV_AT_EPOCH":8786,"BSTAR":0.00049387978,"MEAN_MOTION_DOT":0.00018519,"MEAN_MOTION_DDOT":0},{"OBJECT_NAME":"FLOCK 4BE-32","OBJECT_ID":"2024-149AF","EPOCH":"2026-03-15T04:45:00.948960","MEAN_MOTION":15.38755152,"ECCENTRICITY":0.0003097,"INCLINATION":97.3762,"RA_OF_ASC_NODE":157.3344,"ARG_OF_PERICENTER":234.4004,"MEAN_ANOMALY":125.6954,"EPHEMERIS_TYPE":0,"CLASSIFICATION_TYPE":"U","NORAD_CAT_ID":60497,"ELEMENT_SET_NO":999,"REV_AT_EPOCH":8786,"BSTAR":0.00062413866,"MEAN_MOTION_DOT":0.00023874,"MEAN_MOTION_DDOT":0},{"OBJECT_NAME":"FLOCK 4BE-30","OBJECT_ID":"2024-149AH","EPOCH":"2026-03-15T05:00:41.091552","MEAN_MOTION":15.39207047,"ECCENTRICITY":0.00024744,"INCLINATION":97.384,"RA_OF_ASC_NODE":157.9142,"ARG_OF_PERICENTER":241.7046,"MEAN_ANOMALY":118.395,"EPHEMERIS_TYPE":0,"CLASSIFICATION_TYPE":"U","NORAD_CAT_ID":60499,"ELEMENT_SET_NO":999,"REV_AT_EPOCH":8724,"BSTAR":0.0020674824,"MEAN_MOTION_DOT":0.00081048,"MEAN_MOTION_DDOT":0},{"OBJECT_NAME":"FLOCK 4BE-11","OBJECT_ID":"2024-149AK","EPOCH":"2026-03-15T04:16:53.200992","MEAN_MOTION":15.39579223,"ECCENTRICITY":0.00032459,"INCLINATION":97.3737,"RA_OF_ASC_NODE":157.4517,"ARG_OF_PERICENTER":238.0381,"MEAN_ANOMALY":122.0549,"EPHEMERIS_TYPE":0,"CLASSIFICATION_TYPE":"U","NORAD_CAT_ID":60501,"ELEMENT_SET_NO":999,"REV_AT_EPOCH":8787,"BSTAR":0.00061448317,"MEAN_MOTION_DOT":0.00024147,"MEAN_MOTION_DDOT":0},{"OBJECT_NAME":"FLOCK 4BE-24","OBJECT_ID":"2024-149AP","EPOCH":"2026-03-15T03:51:11.769696","MEAN_MOTION":15.39426698,"ECCENTRICITY":0.00032849,"INCLINATION":97.3757,"RA_OF_ASC_NODE":157.6793,"ARG_OF_PERICENTER":249.5087,"MEAN_ANOMALY":110.5806,"EPHEMERIS_TYPE":0,"CLASSIFICATION_TYPE":"U","NORAD_CAT_ID":60505,"ELEMENT_SET_NO":999,"REV_AT_EPOCH":8788,"BSTAR":0.00061062254,"MEAN_MOTION_DOT":0.00023874,"MEAN_MOTION_DDOT":0},{"OBJECT_NAME":"TANAGER-1","OBJECT_ID":"2024-149AR","EPOCH":"2026-03-14T19:33:03.176640","MEAN_MOTION":15.43532661,"ECCENTRICITY":0.00073341,"INCLINATION":97.378,"RA_OF_ASC_NODE":167.2639,"ARG_OF_PERICENTER":229.1844,"MEAN_ANOMALY":130.8768,"EPHEMERIS_TYPE":0,"CLASSIFICATION_TYPE":"U","NORAD_CAT_ID":60507,"ELEMENT_SET_NO":999,"REV_AT_EPOCH":8847,"BSTAR":0.0005108215,"MEAN_MOTION_DOT":0.00022888,"MEAN_MOTION_DDOT":0},{"OBJECT_NAME":"FLOCK 4BE-29","OBJECT_ID":"2024-149AT","EPOCH":"2026-03-15T04:22:53.104512","MEAN_MOTION":15.40734452,"ECCENTRICITY":0.00019451,"INCLINATION":97.384,"RA_OF_ASC_NODE":158.8667,"ARG_OF_PERICENTER":265.4458,"MEAN_ANOMALY":94.6566,"EPHEMERIS_TYPE":0,"CLASSIFICATION_TYPE":"U","NORAD_CAT_ID":60509,"ELEMENT_SET_NO":999,"REV_AT_EPOCH":8792,"BSTAR":0.00057789707,"MEAN_MOTION_DOT":0.00023579,"MEAN_MOTION_DDOT":0},{"OBJECT_NAME":"FLOCK 4BE-2","OBJECT_ID":"2024-149AV","EPOCH":"2026-03-15T06:28:21.216000","MEAN_MOTION":15.43796766,"ECCENTRICITY":0.00031918,"INCLINATION":97.3847,"RA_OF_ASC_NODE":159.5582,"ARG_OF_PERICENTER":245.8132,"MEAN_ANOMALY":114.2783,"EPHEMERIS_TYPE":0,"CLASSIFICATION_TYPE":"U","NORAD_CAT_ID":60511,"ELEMENT_SET_NO":999,"REV_AT_EPOCH":8797,"BSTAR":0.0010898317,"MEAN_MOTION_DOT":0.00049499,"MEAN_MOTION_DDOT":0},{"OBJECT_NAME":"FLOCK 4BE-13","OBJECT_ID":"2024-149AW","EPOCH":"2026-03-15T05:35:41.624160","MEAN_MOTION":15.39074805,"ECCENTRICITY":0.00035093,"INCLINATION":97.3753,"RA_OF_ASC_NODE":157.8507,"ARG_OF_PERICENTER":239.2841,"MEAN_ANOMALY":120.8059,"EPHEMERIS_TYPE":0,"CLASSIFICATION_TYPE":"U","NORAD_CAT_ID":60512,"ELEMENT_SET_NO":999,"REV_AT_EPOCH":8790,"BSTAR":0.00053221446,"MEAN_MOTION_DOT":0.00020551,"MEAN_MOTION_DDOT":0},{"OBJECT_NAME":"FLOCK 4BE-27","OBJECT_ID":"2024-149AX","EPOCH":"2026-03-15T04:08:08.209536","MEAN_MOTION":15.32724615,"ECCENTRICITY":0.00026378,"INCLINATION":97.3865,"RA_OF_ASC_NODE":156.0882,"ARG_OF_PERICENTER":276.7667,"MEAN_ANOMALY":83.3275,"EPHEMERIS_TYPE":0,"CLASSIFICATION_TYPE":"U","NORAD_CAT_ID":60513,"ELEMENT_SET_NO":999,"REV_AT_EPOCH":8773,"BSTAR":0.00039489628,"MEAN_MOTION_DOT":0.00012409,"MEAN_MOTION_DDOT":0},{"OBJECT_NAME":"FLOCK 4BE-9","OBJECT_ID":"2024-149AY","EPOCH":"2026-03-15T05:21:15.165216","MEAN_MOTION":15.37811487,"ECCENTRICITY":0.00017145,"INCLINATION":97.3828,"RA_OF_ASC_NODE":157.7839,"ARG_OF_PERICENTER":256.4433,"MEAN_ANOMALY":103.6621,"EPHEMERIS_TYPE":0,"CLASSIFICATION_TYPE":"U","NORAD_CAT_ID":60514,"ELEMENT_SET_NO":999,"REV_AT_EPOCH":8786,"BSTAR":0.00054112998,"MEAN_MOTION_DOT":0.00020051,"MEAN_MOTION_DDOT":0},{"OBJECT_NAME":"FLOCK 4BE-6","OBJECT_ID":"2024-149BA","EPOCH":"2026-03-15T04:26:37.146624","MEAN_MOTION":15.36828009,"ECCENTRICITY":0.00024752,"INCLINATION":97.3828,"RA_OF_ASC_NODE":157.2623,"ARG_OF_PERICENTER":258.8286,"MEAN_ANOMALY":101.268,"EPHEMERIS_TYPE":0,"CLASSIFICATION_TYPE":"U","NORAD_CAT_ID":60516,"ELEMENT_SET_NO":999,"REV_AT_EPOCH":8782,"BSTAR":0.00053141472,"MEAN_MOTION_DOT":0.00019072,"MEAN_MOTION_DDOT":0},{"OBJECT_NAME":"FLOCK 4BE-14","OBJECT_ID":"2024-149BB","EPOCH":"2026-03-15T04:19:07.612608","MEAN_MOTION":15.37905599,"ECCENTRICITY":0.00033502,"INCLINATION":97.3731,"RA_OF_ASC_NODE":157.3317,"ARG_OF_PERICENTER":260.5251,"MEAN_ANOMALY":99.5615,"EPHEMERIS_TYPE":0,"CLASSIFICATION_TYPE":"U","NORAD_CAT_ID":60517,"ELEMENT_SET_NO":999,"REV_AT_EPOCH":8786,"BSTAR":0.00055063406,"MEAN_MOTION_DOT":0.00020471,"MEAN_MOTION_DDOT":0},{"OBJECT_NAME":"FLOCK 4BE-1","OBJECT_ID":"2024-149BC","EPOCH":"2026-03-15T05:19:32.017440","MEAN_MOTION":15.3923144,"ECCENTRICITY":0.0003351,"INCLINATION":97.3814,"RA_OF_ASC_NODE":158.3348,"ARG_OF_PERICENTER":257.976,"MEAN_ANOMALY":102.111,"EPHEMERIS_TYPE":0,"CLASSIFICATION_TYPE":"U","NORAD_CAT_ID":60518,"ELEMENT_SET_NO":999,"REV_AT_EPOCH":8790,"BSTAR":0.00057546284,"MEAN_MOTION_DOT":0.00022347,"MEAN_MOTION_DDOT":0},{"OBJECT_NAME":"FLOCK 4BE-28","OBJECT_ID":"2024-149BD","EPOCH":"2026-03-15T04:13:15.779712","MEAN_MOTION":15.41299079,"ECCENTRICITY":0.00035149,"INCLINATION":97.3776,"RA_OF_ASC_NODE":158.7381,"ARG_OF_PERICENTER":260.3348,"MEAN_ANOMALY":99.7502,"EPHEMERIS_TYPE":0,"CLASSIFICATION_TYPE":"U","NORAD_CAT_ID":60519,"ELEMENT_SET_NO":999,"REV_AT_EPOCH":8794,"BSTAR":0.0006186242,"MEAN_MOTION_DOT":0.00025734,"MEAN_MOTION_DDOT":0}]
