FLOCK 4BE-22            
1 60494U 24149AC  26074.22551429  .00022839  00000+0  61198-3 0  9993
2 60494  97.3774 157.1019 0003022 236.3603 123.7354 15.38003786 87849
FLOCK 4BE-34            
1 60495U 24149AD  26074.18172978  .00018519  00000+0  49388-3 0  9994
2 60495  97.3818 157.8117 0002905 233.0748 127.0232 15.38192307 87860
FLOCK 4BE-32            
1 60497U 24149AF  26074.19792765  .00023874  00000+0  62414-3 0  9994
2 60497  97.3762 157.3344 0003097 234.4004 125.6954 15.38755152 87868
FLOCK 4BE-30            
1 60499U 24149AH  26074.20880893  .00081048  00000+0  20675-2 0  9997
2 60499  97.3840 157.9142 0002474 241.7046 118.3950 15.39207047 87247
FLOCK 4BE-11            
1 60501U 24149AK  26074.17839353  .00024147  00000+0  61448-3 0  9993
2 60501  97.3737 157.4517 0003245 238.0381 122.0549 15.39579223 87878
FLOCK 4BE-24            
1 60505U 24149AP  26074.16055289  .00023874  00000+0  61062-3 0  9992
2 60505  97.3757 157.6793 0003284 249.5087 110.5806 15.39426698 87881
TANAGER-1               
1 60507U 24149AR  26073.81462010  .00022888  00000+0  51082-3 0  9994
2 60507  97.3780 167.2639 0007334 229.1844 130.8768 15.43532661 88471
FLOCK 4BE-29            
1 60509U 24149AT  26074.18255908  .00023579  00000+0  57790-3 0  9993
2 60509  97.3840 158.8667 0001945 265.4458  94.6566 15.40734452 87924
FLOCK 4BE-2             
1 60511U 24149AV  26074.26969000  .00049499  00000+0  10898-2 0  9996
2 60511  97.3847 159.5582 0003191 245.8132 114.2783 15.43796766 87978
FLOCK 4BE-13            
1 60512U 24149AW  26074.23312065  .00020551  00000+0  53221-3 0  9993
2 60512  97.3753 157.8507 0003509 239.2841 120.8059 15.39074805 87900
FLOCK 4BE-27            
1 60513U 24149AX  26074.17231724  .00012409  00000+0  39490-3 0  9994
2 60513  97.3865 156.0882 0002637 276.7667  83.3275 15.32724615 87733
FLOCK 4BE-9             
1 60514U 24149AY  26074.22309219  .00020051  00000+0  54113-3 0  9997
2 60514  97.3828 157.7839 0001714 256.4433 103.6621 15.37811487 87868
FLOCK 4BE-6             
1 60516U 24149BA  26074.18515216  .00019072  00000+0  53141-3 0  9991
2 60516  97.3828 157.2623 0002475 258.8286 101.2680 15.36828009 87825
FLOCK 4BE-14            
1 60517U 24149BB  26074.17994922  .00020471  00000+0  55063-3 0  9996
2 60517  97.3731 157.3317 0003350 260.5251  99.5615 15.37905599 87867
FLOCK 4BE-1             
1 60518U 24149BC  26074.22189835  .00022347  00000+0  57546-3 0  9994
2 60518  97.3814 158.3348 0003351 257.9760 102.1110 15.39231440 87906
FLOCK 4BE-28            
1 60519U 24149BD  26074.17587708  .00025734  00000+0  61862-3 0  9999
2 60519  97.3776 158.7381 0003514 260.3348  99.7502 15.41299079 87941
